[{"OBJECT_NAME":"IONOSFERA-M 1","OBJECT_ID":"2024-199A","EPOCH":"2026-03-09T23:07:06.038112","MEAN_MOTION":14.22735344,"ECCENTRICITY":0.00020871,"INCLINATION":98.7325,"RA_OF_ASC_NODE":303.1052,"ARG_OF_PERICENTER":75.9685,"MEAN_ANOMALY":284.1725,"EPHEMERIS_TYPE":0,"CLASSIFICATION_TYPE":"U","NORAD_CAT_ID":61735,"ELEMENT_SET_NO":999,"REV_AT_EPOCH":11359,"BSTAR":4.8219719e-5,"MEAN_MOTION_DOT":6.4e-7,"MEAN_MOTION_DDOT":0},{"OBJECT_NAME":"CZ-2D R\/B","OBJECT_ID":"2023-159B","EPOCH":"2026-03-09T22:55:32.494944","MEAN_MOTION":14.29253115,"ECCENTRICITY":0.00983082,"INCLINATION":98.4631,"RA_OF_ASC_NODE":84.5936,"ARG_OF_PERICENTER":221.3539,"MEAN_ANOMALY":138.0172,"EPHEMERIS_TYPE":0,"CLASSIFICATION_TYPE":"U","NORAD_CAT_ID":58074,"ELEMENT_SET_NO":999,"REV_AT_EPOCH":12523,"BSTAR":7.2839655e-5,"MEAN_MOTION_DOT":1.52e-6,"MEAN_MOTION_DDOT":0}]
